    PJ96R020  2026 06 15.5074  2.586905  0.314435  333.4572   40.0544    2.5994  20241001  11.5  4.0  P/1996 R2 (Lagerkvist)                                   NK   1615
    PJ98V24S  2027 09  7.3260  3.419969  0.243673  244.8054  159.0541    5.0285  20241001  13.0  2.0  P/1998 VS24 (LINEAR)                                     MPC 75703
    PJ99D010  2026 10 10.3175  1.659426  0.713184  173.8373  348.7593   21.2546  20241001   9.0  4.0  P/1999 D1 (Hermann)                                      unp
    PJ99R010  2023 08 21.0364  0.050221  0.979979   56.8533  351.6098   11.4289  20241001   9.0  4.0  P/1999 R1 (SOHO)                                         unp
    PJ99R28O  2025 10 30.2626  1.122622  0.672292  231.3431  137.8530    7.5666  20241001  20.0  2.0  P/1999 RO28 (LONEOS)                                     NK    731
    PJ99XC0N  2025 12 22.1607  3.297801  0.211052  161.6661  285.2522    5.0295  20241001  13.5  2.0  P/1999 XN120 (Catalina)                                  MPC 75704
    PK00Q46J  2028 12  5.6811  1.879306  0.675465  222.2756  158.1004    4.4328  20241001   9.0  4.0  P/2000 QJ46 (LINEAR)                                     unp
    PK00R020  2025 12  2.2773  1.627707  0.530743  176.5882  160.2819   11.6797  20241001  18.0  4.0  P/2000 R2 (LINEAR)                                       NK    744
    PK01B50B  2028 05 24.2962  2.381197  0.586042  193.3452  351.1503   10.3272  20241001  13.0  4.0  P/2001 BB50 (LINEAR-NEAT)                                unp
    PK01H050  2030 10 24.3679  2.446130  0.598687  224.6179  328.6551    8.3703  20241001  12.0  4.0  P/2001 H5 (NEAT)                                         MPC 43019
    PK02E57J  2018 06 18.9522  2.624548  0.593509  167.2603  330.2447    4.9857  20241001  12.5  4.0  P/2002 EJ57 (LINEAR)                                     MPEC 2023-UR6
    CK02V94Q  2006 02  8.0559  6.764175  0.963593   99.8185   35.1413   70.6928  20241001   9.5  2.0  C/2002 VQ94 (LINEAR)                                     MPC 75007
    PK03F020  2019 11 14.4803  2.985575  0.541526  192.5181  358.9052   11.6664  20241001  16.5  2.0  P/2003 F2 (NEAT)                                         MPC 50354
    PK03Q29X  2025 08  7.1109  4.228970  0.471585   37.6656  264.5333   11.3992  20241001   8.5  4.0  P/2003 QX29 (NEAT)                                       MPC 50139
    PK03T120  2024 07  3.7557  0.593663  0.770259  219.7850  174.5772   11.0251  20241001  17.0  4.0  P/2003 T12 (SOHO)                                        MPC105235
    PK03U030  2026 02 23.6324  2.467833  0.510598  357.0379  347.9296    7.0161  20241001  12.0  4.0  P/2003 U3 (NEAT)                                         unp
    PK04FE0Y  2027 02 21.7000  4.013641  0.192400  254.1449  327.2645    2.1623  20241001  12.5  2.0  P/2004 FY140 (LINEAR)                                    MPEC 2022-YN2
    PK04H020  2023 08  5.6987  2.639851  0.416847  104.6933  131.3748   11.7747  20241001   9.0  4.0  P/2004 H2 (Larsen)                                       unp
    PK04R030  2021 09 17.0410  3.542580  0.254377   37.4142  305.1213   12.7960  20241001  14.5  4.0  P/2004 R3 (LINEAR-NEAT)                                  MPC 53304
    PK04V050  2027 08  7.5585  4.433551  0.447660   87.2901   47.7411   19.3449  20241001   8.0  4.0  P/2004 V5 (LINEAR-Hill)                                  MPC 75705
    PK04V05b  2027 08  8.5261  4.433568  0.447681   87.2937   47.7414   19.3450  20241001   8.0  4.0  P/2004 V5-B (LINEAR-Hill)                                MPC 75705
    PK05E010  2023 09 27.8266  4.402609  0.376858  193.8814  335.5144    4.2611  20241001  10.0  4.0  P/2005 E1 (Tubbiolo)                                     MPC 54164
    PK05G08F  2019 09 15.7582  2.798739  0.513864  285.4050  312.8364    1.1658  20241001   9.0  4.0  P/2005 GF8 (LONEOS)                                      unp
    PK05J010  2025 07 11.7242  1.539593  0.569207  338.9180  268.8005   31.7408  20241001  16.5  4.0  P/2005 J1 (McNaught)                                     MPC 79019
    PK05L010  2021 11 24.6219  3.054865  0.233162  155.4699  132.6262    7.8480  20241001   9.5  4.0  P/2005 L1 (McNaught)                                     MPC 74246
    PK05S020  2029 01 23.7577  6.401163  0.198778  229.8561  161.3460    3.1376  20241001   7.5  4.0  P/2005 S2 (Skiff)                                        MPC 75706
    PK05T030  2026 08 17.5472  6.254392  0.175081    6.9340   27.6361    6.2296  20241001   9.0  4.0  P/2005 T3 (Read)                                         MPC 73461
    PK05T040  2034 05 29.0495  0.651154  0.930381   41.8539   25.9036  160.2735  20241001  15.0  4.0  P/2005 T4 (SWAN)                                         MPC 73461
    PK05T050  2025 06 14.8447  3.253672  0.552091  304.7577   57.0671   21.3833  20241001  11.0  4.0  P/2005 T5 (Broughton)                                    MPC 75706
    PK05XD2R  2028 03 10.9474  2.132332  0.432584  240.7673  265.3956   14.4753  20241001  16.0  4.0  P/2005 XR132 (Spacewatch)                                MPEC 2024-DD5
    PK05Y020  2020 10  9.4508  3.368373  0.464508  193.3679   93.8030   19.1518  20241001   9.0  4.0  P/2005 Y2 (McNaught)                                     unp
    PK06A02H  2023 08 24.8472  3.991450  0.417110  196.0349  261.6461   10.0162  20241001  13.0  4.0  P/2006 AH2 (Sheppard-Tholen)                             MPEC 2024-JU4
    PK06F040  2026 02 24.2471  2.266851  0.350101   31.3628  183.5554   12.4278  20241001   9.0  4.0  P/2006 F4 (Spacewatch)                                   unp
    PK06H30R  2028 10  8.9864  1.219561  0.843655  117.4726  309.7867   31.9374  20241001  11.0  4.0  P/2006 HR30 (Siding Spring)                              MPC 75707
    PK06X16G  2027 11 28.9470  2.112993  0.419264   40.9144   78.4046    9.0627  20241001   9.0  4.0  P/2006 XG16 (Spacewatch)                                 unp
    PK07C020  2026 03 21.5876  3.692587  0.473532  180.1510  275.2419    8.6124  20241001  10.0  4.0  P/2007 C2 (Catalina)                                     MPC 75707
    CK07D010  2007 06 11.5475  8.744152  0.992544  339.7029  171.1092   41.5082  20241001   3.5  4.0  C/2007 D1 (LINEAR)                                       MPC 84315
    PK07K020  2027 01 27.1671  2.307333  0.685797  347.1679  188.5431    7.6092  20241001  14.0  4.0  P/2007 K2 (Gibbs)                                        MPEC 2024-GJ3
    PK07Q020  2020 11 25.9075  1.873157  0.669122  162.8699  172.2114   10.1970  20241001  16.0  4.0  P/2007 Q2 (Gilmore)                                      MPC 60925
    PK07S010  2022 10  6.6680  2.526339  0.338247  245.2434  141.3315    5.9641  20241001  13.0  4.0  P/2007 S1 (Zhao)                                         MPC 73462
    CK07S020  2008 08 29.8573  5.546331  0.556257  210.1612  296.1216   16.9059  20241001   6.5  4.0  C/2007 S2 (Lemmon)                                       MPEC 2024-GJ3
    PK07T020  2023 11 17.5958  0.652590  0.785591  359.6708    3.3871    9.7504  20241001  18.5  4.0  P/2007 T2 (Kowalski)                                     MPC 61994
    CK08E010  2008 08 17.9481  4.816335  0.552602  270.2894  188.9734   34.8663  20241001   7.0  4.0  C/2008 E1 (Catalina)                                     MPEC 2024-GJ3
    PK08O030  2031 12 22.3261  2.491848  0.696459  341.1958   47.6083   32.3251  20241001  13.0  4.0  P/2008 O3 (Boattini)                                     MPC 64114
    PK08Y030  2031 10  7.4281  4.442050  0.447592  238.0716  262.8436   38.7788  20241001   8.5  4.0  P/2008 Y3 (McNaught)                                     MPC 75710
    PK09B010  2026 06 30.3342  2.449290  0.636061  128.9690  297.1066   22.2576  20241001  13.0  4.0  P/2009 B1 (Boattini)                                     MPC 75710
    CK09G010  2009 04 18.0260  1.139758  0.997542  175.5346  120.8123  108.1581  20241001   9.0  4.0  C/2009 G1 (STEREO)                                       MPC 66466
    PK09O030  2031 01 25.0436  2.434831  0.686614  154.4569  183.7150   16.2646  20241001  12.5  4.0  P/2009 O3 (Hill)                                         MPC 75710
    PK09Q050  2029 12 17.6084  2.898820  0.609608  209.1912  160.2399   40.9655  20241001  10.0  4.0  P/2009 Q5 (McNaught)                                     MPC 68902
    PK09Q31G  2023 04 18.8427  2.144721  0.399306    5.6985  346.1206    5.0507  20241001  14.0  4.0  P/2009 QG31 (La Sagra)                                   unp
    PK09T020  2031 06 10.6817  1.793205  0.767437  215.9539  216.3443   27.6102  20241001  14.0  4.0  P/2009 T2 (La Sagra)                                     MPC112389
    PK09W51X  2026 04 15.1537  0.802913  0.739528  118.2767   31.5322    9.5956  20241001  19.0  2.0  P/2009 WX51 (Catalina)                                   MPC105235
    PK09Y020  2026 12  1.6614  2.371997  0.637436  172.1979  262.0862   29.9738  20241001  13.0  4.0  P/2009 Y2 (Kowalski)                                     MPC 74247
    PK10A030  2025 03 11.4345  1.620937  0.734328   42.2086   63.6439   14.8190  20241001  14.0  4.0  P/2010 A3 (Hill)                                         MPC 75711
    PK10C010  2028 09 23.9272  5.249338  0.263105    3.0021  141.6085    9.1160  20241001   9.5  4.0  P/2010 C1 (Scotti)                                       MPC 75008
    PK10D020  2027 07  9.2033  3.684145  0.451774  119.9657  319.8735   57.1269  20241001  16.0  4.0  P/2010 D2 (WISE)                                         MPC 75008
    PK10E020  2035 08  4.8143  2.416081  0.720280    8.2329  177.8097   15.4100  20241001  14.0  4.0  P/2010 E2 (Jarnac)                                       MPC 75009
    PK10H020  2025 03  9.6551  3.075955  0.197424  128.0505   64.1871   14.2796  20241001   6.0  4.0  P/2010 H2 (Vales)                                        MPC 72851
    PK10H030  2026 05 25.1817  0.043872  0.985548   26.0581   77.1907   23.1536  20241001  20.0  2.0  P/2010 H3 (SOHO)                                         MPC 70361
